{"type": "FeatureCollection", "features": [ {"type": "Feature", "properties": {"norad_id": 58654, "name": "BEIDOU-3 M28 (C50)", "group": "beidou", "lat": 24.384253967286803, "lon": 86.6034657418321, "alt_km": 21528.6286167114, "timestamp": "2025-12-15T04:01:20.716968+00:00", "meta": {"OBJECT_NAME": "BEIDOU-3 M28 (C50)", "OBJECT_ID": "2023-207A", "EPOCH": "2025-12-14T01:10:25.688352", "MEAN_MOTION": 1.86229806, "ECCENTRICITY": 0.00024295, "INCLINATION": 55.5856, "RA_OF_ASC_NODE": 68.557, "ARG_OF_PERICENTER": 270.0731, "MEAN_ANOMALY": 89.9173, "EPHEMERIS_TYPE": 0, "CLASSIFICATION_TYPE": "U", "NORAD_CAT_ID": 58654, "ELEMENT_SET_NO": 999, "REV_AT_EPOCH": 1339, "BSTAR": 0, "MEAN_MOTION_DOT": -8.3e-07, "MEAN_MOTION_DDOT": 0}, "tle": {"line1": "1 58654U 23207A   25348.04890843 -.00000083  00000+0  00000+0 0  9990", "line2": "2 58654  55.5856  68.5570 0002429 270.0731  89.9173  1.86229806 13397"}}, "geometry": {"type": "Point", "coordinates": [86.6034657418321, 24.384253967286803]}}, {"type": "Feature", "properties": {"norad_id": 58655, "name": "BEIDOU-3 M26 (C48)", "group": "beidou", "lat": 11.787218054087848, "lon": -119.69881866225361, "alt_km": 21526.80046082785, "timestamp": "2025-12-15T04:01:20.716979+00:00", "meta": {"OBJECT_NAME": "BEIDOU-3 M26 (C48)", "OBJECT_ID": "2023-207B", "EPOCH": "2025-12-13T07:25:48.468864", "MEAN_MOTION": 1.86231261, "ECCENTRICITY": 0.00038294, "INCLINATION": 55.587, "RA_OF_ASC_NODE": 68.5683, "ARG_OF_PERICENTER": 255.9601, "MEAN_ANOMALY": 104.0159, "EPHEMERIS_TYPE": 0, "CLASSIFICATION_TYPE": "U", "NORAD_CAT_ID": 58655, "ELEMENT_SET_NO": 999, "REV_AT_EPOCH": 1336, "BSTAR": 0, "MEAN_MOTION_DOT": -7.9e-07, "MEAN_MOTION_DDOT": 0}, "tle": {"line1": "1 58655U 23207B   25347.30958876 -.00000079  00000+0  00000+0 0  9995", "line2": "2 58655  55.5870  68.5683 0003829 255.9601 104.0159  1.86231261 13360"}}, "geometry": {"type": "Point", "coordinates": [-119.69881866225361, 11.787218054087848]}}, {"type": "Feature", "properties": {"norad_id": 61186, "name": "BEIDOU-3 M25 (C47)", "group": "beidou", "lat": -52.74171698122702, "lon": -120.28059076993999, "alt_km": 21519.217474571884, "timestamp": "2025-12-15T04:01:20.716990+00:00", "meta": {"OBJECT_NAME": "BEIDOU-3 M25 (C47)", "OBJECT_ID": "2024-168B", "EPOCH": "2025-12-13T09:51:38.613312", "MEAN_MOTION": 1.86230198, "ECCENTRICITY": 0.00054273, "INCLINATION": 54.6413, "RA_OF_ASC_NODE": 308.6962, "ARG_OF_PERICENTER": 297.8799, "MEAN_ANOMALY": 246.8955, "EPHEMERIS_TYPE": 0, "CLASSIFICATION_TYPE": "U", "NORAD_CAT_ID": 61186, "ELEMENT_SET_NO": 999, "REV_AT_EPOCH": 832, "BSTAR": 0, "MEAN_MOTION_DOT": -9.7e-07, "MEAN_MOTION_DDOT": 0}, "tle": {"line1": "1 61186U 24168B   25347.41086358 -.00000097  00000+0  00000+0 0  9994", "line2": "2 61186  54.6413 308.6962 0005427 297.8799 246.8955  1.86230198  8320"}}, "geometry": {"type": "Point", "coordinates": [-120.28059076993999, -52.74171698122702]}}, {"type": "Feature", "properties": {"norad_id": 61187, "name": "BEIDOU-3 M27 (C49)", "group": "beidou", "lat": 43.49624257382948, "lon": -9.06834941856689, "alt_km": 21521.75704567802, "timestamp": "2025-12-15T04:01:20.717002+00:00", "meta": {"OBJECT_NAME": "BEIDOU-3 M27 (C49)", "OBJECT_ID": "2024-168C", "EPOCH": "2025-12-13T04:47:06.571968", "MEAN_MOTION": 1.86230336, "ECCENTRICITY": 0.00023989, "INCLINATION": 54.6369, "RA_OF_ASC_NODE": 308.6872, "ARG_OF_PERICENTER": 337.1666, "MEAN_ANOMALY": 200.7639, "EPHEMERIS_TYPE": 0, "CLASSIFICATION_TYPE": "U", "NORAD_CAT_ID": 61187, "ELEMENT_SET_NO": 999, "REV_AT_EPOCH": 579, "BSTAR": 0, "MEAN_MOTION_DOT": -9.6e-07, "MEAN_MOTION_DDOT": 0}, "tle": {"line1": "1 61187U 24168C   25347.19938162 -.00000096  00000+0  00000+0 0  9998", "line2": "2 61187  54.6369 308.6872 0002398 337.1666 200.7639  1.86230336  5796"}}, "geometry": {"type": "Point", "coordinates": [-9.06834941856689, 43.49624257382948]}}]}